OBJECT_NAME,OBJECT_ID,EPOCH,MEAN_MOTION,ECCENTRICITY,INCLINATION,RA_OF_ASC_NODE,ARG_OF_PERICENTER,MEAN_ANOMALY,EPHEMERIS_TYPE,CLASSIFICATION_TYPE,NORAD_CAT_ID,ELEMENT_SET_NO,REV_AT_EPOCH,BSTAR,MEAN_MOTION_DOT,MEAN_MOTION_DDOT
NUSANTARA TIGA (SATRIA),2023-086A,2026-06-18T22:10:13.917216,1.00268109,.00030921,0.0360,355.3307,352.1073,38.2728,0,U,57045,999,977,0,-.242E-5,0
H2SAT (HEINRICH HERTZ),2023-093A,2026-06-18T14:38:12.691104,1.00270922,.00008425,0.0587,104.5799,91.9025,290.6226,0,U,57213,999,1093,0,-.4E-7,0
SYRACUSE 4B,2023-093B,2026-06-18T21:26:45.832128,1.00269420,.00002201,0.0175,29.0154,142.0641,51.2915,0,U,57214,999,698,0,-.6E-6,0
JUPITER 3 (ECHOSTAR 24),2023-108A,2026-06-18T12:33:51.753888,1.00268776,.00012666,0.0215,355.2271,87.4858,277.3015,0,U,57479,999,1065,0,0,0
GALAXY 37 (G-37),2023-112A,2026-06-18T15:44:25.528128,1.00269676,.00018937,0.0185,340.0371,104.8050,291.1539,0,U,57493,999,1055,0,.42E-6,0
LUDI TANCE-4 01A,2023-120A,2026-06-18T01:22:16.786272,1.00268641,.00011505,15.1019,193.9396,43.3474,139.2590,0,U,57624,999,1055,0,-.18E-5,0
TJS-10,2023-169A,2026-06-17T19:12:58.321728,1.00274368,.0003814,2.5467,80.4827,110.1676,96.0447,0,U,58204,999,954,0,-.256E-5,0
ZHONGXING-6E,2023-172A,2026-06-18T23:44:17.781216,1.00270526,.00027668,0.0430,89.4664,352.4347,296.9191,0,U,58253,999,967,0,-.368E-5,0
YAOGAN-41,2023-197A,2026-06-18T23:46:25.077792,1.00269298,.00140421,3.1247,313.1845,193.7134,240.1171,0,U,58582,999,934,0,-.368E-5,0
OVZON-3,2024-003A,2026-06-18T21:15:05.421888,1.00274291,.00002319,0.0089,64.5534,278.1031,302.9116,0,U,58698,999,746,0,.45E-6,0
INSAT-3DS,2024-033A,2026-06-18T21:52:00.664320,1.00271106,.00010946,0.0456,107.1202,328.7009,241.4219,0,U,58990,999,4708,0,-.162E-5,0
MERAH PUTIH 2,2024-035A,2026-06-18T22:00:52.313760,1.00266447,.00010793,0.0163,356.5778,82.3392,271.3958,0,U,58995,999,860,0,0,0
TJS-11,2024-037A,2026-06-18T20:31:05.962368,1.00274895,.0003174,4.1967,327.1191,106.5418,253.8178,0,U,59020,999,859,0,-.37E-5,0
HULIANWAN GAOGUI-01 (HG-01),2024-040A,2026-06-18T01:06:18.317376,1.00271503,.00028349,0.0671,331.6116,65.8323,278.9846,0,U,59069,999,733,0,.15E-5,0
EUTELSAT 36D,2024-059A,2026-06-18T20:37:39.308736,1.00269707,.00001285,0.0177,27.9404,169.0663,55.3692,0,U,59346,999,816,0,.149E-5,0
PAKSAT-MM1,2024-104A,2026-06-18T20:39:14.602752,1.00265491,.00024527,0.0343,86.9825,348.7474,179.3692,0,U,59915,999,754,0,.147E-5,0
ASTRA 1P (SES-24),2024-115A,2026-06-18T14:43:27.187968,1.00269660,.00009041,0.0576,354.9073,341.5376,170.4799,0,U,60086,999,721,0,.113E-5,0
GOES 19,2024-119A,2026-06-18T21:07:12.253152,1.00270782,.00003563,0.0404,169.7841,2.6087,336.3285,0,U,60133,999,698,0,-.254E-5,0
ZHONGXING-3A,2024-122A,2026-06-17T20:37:30.583200,1.00271597,.0001093,0.0418,104.0163,21.3241,191.7088,0,U,60179,999,731,0,-.319E-5,0
TURKSAT 6A,2024-127A,2026-06-18T21:13:21.188064,1.00270474,.00015982,0.0142,198.8593,291.9552,136.6304,0,U,60233,999,703,0,0,0
HULIANWAN GAOGUI-02 (HG-02),2024-135A,2026-06-17T12:26:38.820768,1.00267686,.0007308,0.0433,1.4713,5.2904,238.8047,0,U,60327,999,750,0,-.179E-5,0
ZHONGXING-4A,2024-151A,2026-06-18T22:02:22.170624,1.00272814,.00000721,1.3089,270.8190,155.4232,289.7258,0,U,60606,999,677,0,-.368E-5,0
HULIANWAN GAOGUI-03 (HG-03),2024-181A,2026-06-17T09:44:38.705856,1.00271733,.0001152,0.0466,2.9842,86.9142,244.7856,0,U,61503,999,682,0,-.246E-5,0
DSN-3 (KIRAMEKI-3),2024-198A,2026-06-18T22:09:43.964928,1.00271278,.00004604,0.0107,46.0646,50.5628,287.0191,0,U,61733,999,593,0,-.256E-5,0
KOREASAT 6A,2024-206A,2026-06-18T22:01:44.730048,1.00269713,.00007906,0.0206,88.4050,332.7182,292.4682,0,U,61910,999,585,0,-.368E-5,0
OPTUS-X (ADS-01),2024-212A,2026-06-18T18:47:51.695808,1.00270222,.00018933,0.0164,300.6025,192.4521,212.2999,0,U,62006,999,577,0,-.15E-5,0
GSAT-N2 (GSAT-20),2024-214A,2026-06-18T21:48:01.046880,1.00270239,.00018802,0.0440,109.5250,327.7692,224.7970,0,U,62028,999,591,0,-.25E-6,0
SXM-9,2024-234A,2026-06-18T21:04:20.028576,1.00271223,.00050305,0.0124,350.0214,325.0221,182.9807,0,U,62259,999,559,0,-.211E-5,0
TJS-12,2024-246A,2026-06-18T20:27:46.036224,1.00269244,.00020602,0.6660,299.3763,82.7308,338.4500,0,U,62374,999,558,0,-.238E-5,0
NUVIEW ALPHA,2024-252B,2026-06-18T21:04:57.469152,1.00271930,.00011049,0.0522,31.1072,32.0189,77.1482,0,U,62455,999,384,0,-.222E-5,0
AGILA,2024-252C,2026-06-18T20:29:23.379648,1.00270941,.00011507,0.0619,127.0545,331.5839,267.9526,0,U,62456,999,517,0,-.188E-5,0
