NUSANTARA TIGA (SATRIA) 
1 57045U 23086A   26169.92377219 -.00000242  00000+0  00000+0 0  9991
2 57045   0.0360 355.3307 0003092 352.1073  38.2728  1.00268109  9773
H2SAT (HEINRICH HERTZ)  
1 57213U 23093A   26169.60986911 -.00000004  00000+0  00000+0 0  9992
2 57213   0.0587 104.5799 0000842  91.9025 290.6226  1.00270922 10938
SYRACUSE 4B             
1 57214U 23093B   26169.89358602 -.00000060  00000+0  00000+0 0  9996
2 57214   0.0175  29.0154 0000220 142.0641  51.2915  1.00269420  6987
JUPITER 3 (ECHOSTAR 24) 
1 57479U 23108A   26169.52351567  .00000000  00000+0  00000+0 0  9992
2 57479   0.0215 355.2271 0001266  87.4858 277.3015  1.00268776 10656
GALAXY 37 (G-37)        
1 57493U 23112A   26169.65585102  .00000042  00000+0  00000+0 0  9997
2 57493   0.0185 340.0371 0001893 104.8050 291.1539  1.00269676 10559
LUDI TANCE-4 01A        
1 57624U 23120A   26169.05713873 -.00000180  00000+0  00000+0 0  9998
2 57624  15.1019 193.9396 0001150  43.3474 139.2590  1.00268641 10553
TJS-10                  
1 58204U 23169A   26168.80067502 -.00000256  00000+0  00000+0 0  9993
2 58204   2.5467  80.4827 0003814 110.1676  96.0447  1.00274368  9541
ZHONGXING-6E            
1 58253U 23172A   26169.98909469 -.00000368  00000+0  00000+0 0  9992
2 58253   0.0430  89.4664 0002766 352.4347 296.9191  1.00270526  9670
YAOGAN-41               
1 58582U 23197A   26169.99056803 -.00000368  00000+0  00000+0 0  9990
2 58582   3.1247 313.1845 0014042 193.7134 240.1171  1.00269298  9340
OVZON-3                 
1 58698U 24003A   26169.88547942  .00000045  00000+0  00000+0 0  9993
2 58698   0.0089  64.5534 0000231 278.1031 302.9116  1.00274291  7465
INSAT-3DS               
1 58990U 24033A   26169.91111880 -.00000162  00000+0  00000+0 0  9994
2 58990   0.0456 107.1202 0001094 328.7009 241.4219  1.00271106 47084
MERAH PUTIH 2           
1 58995U 24035A   26169.91727215  .00000000  00000+0  00000+0 0  9996
2 58995   0.0163 356.5778 0001079  82.3392 271.3958  1.00266447  8602
TJS-11                  
1 59020U 24037A   26169.85493012 -.00000370  00000+0  00000+0 0  9997
2 59020   4.1967 327.1191 0003174 106.5418 253.8178  1.00274895  8591
HULIANWAN GAOGUI-01 (H*)
1 59069U 24040A   26169.04604534  .00000150  00000+0  00000+0 0  9993
2 59069   0.0671 331.6116 0002834  65.8323 278.9846  1.00271503  7336
EUTELSAT 36D            
1 59346U 24059A   26169.85948274  .00000149  00000+0  00000+0 0  9990
2 59346   0.0177  27.9404 0000128 169.0663  55.3692  1.00269707  8169
PAKSAT-MM1              
1 59915U 24104A   26169.86058568  .00000147  00000+0  00000+0 0  9990
2 59915   0.0343  86.9825 0002452 348.7474 179.3692  1.00265491  7540
ASTRA 1P (SES-24)       
1 60086U 24115A   26169.61350912  .00000113  00000+0  00000+0 0  9997
2 60086   0.0576 354.9073 0000904 341.5376 170.4799  1.00269660  7210
GOES 19                 
1 60133U 24119A   26169.88000293 -.00000254  00000+0  00000+0 0  9994
2 60133   0.0404 169.7841 0000356   2.6087 336.3285  1.00270782  6986
ZHONGXING-3A            
1 60179U 24122A   26168.85938175 -.00000319  00000+0  00000+0 0  9995
2 60179   0.0418 104.0163 0001093  21.3241 191.7088  1.00271597  7316
TURKSAT 6A              
1 60233U 24127A   26169.88427301  .00000000  00000+0  00000+0 0  9995
2 60233   0.0142 198.8593 0001598 291.9552 136.6304  1.00270474  7030
HULIANWAN GAOGUI-02 (H*)
1 60327U 24135A   26168.51850487 -.00000179  00000+0  00000+0 0  9990
2 60327   0.0433   1.4713 0007308   5.2904 238.8047  1.00267686  7504
ZHONGXING-4A            
1 60606U 24151A   26169.91831216 -.00000368  00000+0  00000+0 0  9992
2 60606   1.3089 270.8190 0000072 155.4232 289.7258  1.00272814  6775
HULIANWAN GAOGUI-03 (H*)
1 61503U 24181A   26168.40600354 -.00000246  00000+0  00000+0 0  9997
2 61503   0.0466   2.9842 0001152  86.9142 244.7856  1.00271733  6823
DSN-3 (KIRAMEKI-3)      
1 61733U 24198A   26169.92342552 -.00000256  00000+0  00000+0 0  9992
2 61733   0.0107  46.0646 0000460  50.5628 287.0191  1.00271278  5935
KOREASAT 6A             
1 61910U 24206A   26169.91787882 -.00000368  00000+0  00000+0 0  9991
2 61910   0.0206  88.4050 0000790 332.7182 292.4682  1.00269713  5854
OPTUS-X (ADS-01)        
1 62006U 24212A   26169.78323722 -.00000150  00000+0  00000+0 0  9998
2 62006   0.0164 300.6025 0001893 192.4521 212.2999  1.00270222  5777
GSAT-N2 (GSAT-20)       
1 62028U 24214A   26169.90834545 -.00000025  00000+0  00000+0 0  9999
2 62028   0.0440 109.5250 0001880 327.7692 224.7970  1.00270239  5913
SXM-9                   
1 62259U 24234A   26169.87800959 -.00000211  00000+0  00000+0 0  9992
2 62259   0.0124 350.0214 0005030 325.0221 182.9807  1.00271223  5593
TJS-12                  
1 62374U 24246A   26169.85261616 -.00000238  00000+0  00000+0 0  9991
2 62374   0.6660 299.3763 0002060  82.7308 338.4500  1.00269244  5586
NUVIEW ALPHA            
1 62455U 24252B   26169.87844293 -.00000222  00000+0  00000+0 0  9991
2 62455   0.0522  31.1072 0001104  32.0189  77.1482  1.00271930  3843
AGILA                   
1 62456U 24252C   26169.85374282 -.00000188  00000+0  00000+0 0  9997
2 62456   0.0619 127.0545 0001150 331.5839 267.9526  1.00270941  5178
